IRIDIUM 155             
1 43573U 18061E   25028.40562941  .00000082  00000+0  22363-4 0  9995
2 43573  86.3936 267.5978 0002111  94.6997 265.4440 14.34216749341006
IRIDIUM 154             
1 43574U 18061F   25028.38660208 -.00000110  00000+0 -46489-4 0  9997
2 43574  86.3943 267.7140 0001981  82.5433 277.5987 14.34217927341057
IRIDIUM 163             
1 43575U 18061G   25028.36757290  .00000549  00000+0  18911-3 0  9996
2 43575  86.3935 267.6537 0001936  87.2957 272.8461 14.34216956341024
IRIDIUM 156             
1 43576U 18061H   25028.41197336  .00000093  00000+0  26028-4 0  9995
2 43576  86.3943 267.6420 0002276  95.3466 264.7990 14.34217718341022
IRIDIUM 164             
1 43577U 18061J   25028.39294539  .00000176  00000+0  55631-4 0  9990
2 43577  86.3943 267.6822 0002131  79.5590 280.5845 14.34217572341068
IRIDIUM 159             
1 43578U 18061K   25028.36123271  .00000521  00000+0  17899-3 0  9999
2 43578  86.3942 267.6427 0001883  79.3546 280.7862 14.34215177341027
IRIDIUM 180             
1 43922U 19002A   25028.77933985  .00000178  00000+0  56494-4 0  9997
2 43922  86.3983 204.3589 0001941  94.6447 265.4970 14.34219591316731
IRIDIUM 176             
1 43923U 19002B   25028.43086270  .00000846  00000+0  13022-3 0  9998
2 43923  86.6107 204.5082 0001093  73.4513 286.6824 14.72259731324981
IRIDIUM 168             
1 43924U 19002C   25028.42415300  .00000005  00000+0 -51976-5 0  9998
2 43924  86.3987 204.5703 0001790  88.4894 271.6507 14.34217497316622
IRIDIUM 173             
1 43925U 19002D   25028.76031041 -.00000059  00000+0 -27970-4 0  9998
2 43925  86.3986 204.3397 0001864  94.7411 265.3998 14.34217191316665
IRIDIUM 169             
1 43926U 19002E   25028.06866772  .00000291  00000+0  88477-4 0  9994
2 43926  86.4200 236.2299 0002215 132.4264 227.7121 14.38602127317604
IRIDIUM 172             
1 43927U 19002F   25028.75397174  .00000189  00000+0  60603-4 0  9993
2 43927  86.3982 204.3485 0001881  89.7915 270.3496 14.34215169316665
IRIDIUM 175             
1 43928U 19002G   25028.42549670  .00002333  00000+0  36580-3 0  9997
2 43928  86.1547 164.9934 0003182 104.2699 255.8871 14.72260337324976
IRIDIUM 171             
1 43929U 19002H   25028.73493982  .00000057  00000+0  13337-4 0  9993
2 43929  86.3989 204.6066 0002407  88.0114 272.1358 14.34217761316656
IRIDIUM 170             
1 43930U 19002J   25028.43702439  .00000841  00000+0  12939-3 0  9999
2 43930  86.6107 204.5109 0002037  95.0433 265.1017 14.72260685324996
IRIDIUM 167             
1 43931U 19002K   25028.51929333  .00000022  00000+0  69223-6 0  9995
2 43931  86.3980 204.4644 0002410  97.1956 262.9514 14.34217697316625
IRIDIUM 181             
1 56726U 23068S   25028.18046061  .00000746  00000+0  21566-3 0  9997
2 56726  86.4482 267.7318 0002642  82.4100 277.7401 14.43323542 89593
IRIDIUM 177             
1 56727U 23068T   25028.54146754  .00001139  00000+0  14644-3 0  9994
2 56727  86.1974 208.3523 0001853  91.5755 268.5678 14.80233641 91718
IRIDIUM 174             
1 56728U 23068U   25028.19793670  .00000299  00000+0  35782-4 0  9994
2 56728  86.1982 208.6375 0002277  87.4389 272.7092 14.80232672 91668
IRIDIUM 178             
1 56729U 23068V   25028.32770090  .00000180  00000+0  20195-4 0  9992
2 56729  86.5747 236.6849 0002796  73.6094 286.5434 14.80217031 91682
IRIDIUM 179             
1 56730U 23068W   25028.32230629  .00002547  00000+0  33173-3 0  9991
2 56730  86.6754 243.6553 0002274  80.5326 279.6152 14.80233684 91681
